SatCatId,ObjectName,LaunchYear,OrbitalPeriod,LaunchMass,StatusCode,Inclination,Status,UcsData,OrbitClassEstimated,LaunchSiteCountry,Owner,UseType,Purpose,LaunchVehicleClass,TLE1,TLE2,MeanMotion,Eccentricity,OrbitClass
55947,STARLINK-5851,2023,91.72,-1.0,+,70.0,Active,0,LEO,USA,USA,Unknown,Unknown,Falcon,1 55947U 23037AK  23128.14165184  .00000565  00000+0  64690-5 0  9996,2 55947  69.9990  36.6258 0003727 267.1315  92.9454 15.69938420  8590,15.6993842,0.0003727,LEO
55948,STARLINK-5900,2023,91.72,-1.0,+,70.0,Active,0,LEO,USA,USA,Unknown,Unknown,Falcon,1 55948U 23037AL  23127.88626606  .00000095  00000+0  25619-5 0  9994,2 55948  69.9997  37.3385 0004248 275.6018  84.4693 15.69924848  8219,15.69924848,0.0004248,LEO
55949,STARLINK-5899,2023,91.72,-1.0,+,70.0,Active,0,LEO,USA,USA,Unknown,Unknown,Falcon,1 55949U 23037AM  23128.14134574  .00008576  00000+0  72989-4 0  9996,2 55949  70.0017  36.6242 0003593 264.9344  95.1441 15.69933053  8594,15.69933053,0.0003593,LEO
55950,STARLINK-5911,2023,91.72,-1.0,+,70.0,Active,0,LEO,USA,USA,Unknown,Unknown,Falcon,1 55950U 23037AN  23128.14091553  .00003126  00000+0  27742-4 0  9990,2 55950  69.9984  36.6224 0003522 267.0125  93.0668 15.69935247  8594,15.69935247,0.0003522,LEO
55951,STARLINK-5908,2023,91.73,-1.0,+,70.0,Active,0,LEO,USA,USA,Unknown,Unknown,Falcon,1 55951U 23037AP  23127.88668881  .00001107  00000+0  10976-4 0  9993,2 55951  70.0012  37.3418 0004299 274.9399  85.1306 15.69926201  8552,15.69926201,0.0004299,LEO
55952,STARLINK-5893,2023,91.72,-1.0,+,70.0,Active,0,LEO,USA,USA,Unknown,Unknown,Falcon,1 55952U 23037AQ  23128.14123729  .00009388  00000+0  79703-4 0  9993,2 55952  70.0021  36.6245 0003765 266.7845  93.2920 15.69938996  8595,15.69938996,0.0003765,LEO
55953,STARLINK-5889,2023,91.72,-1.0,+,70.0,Active,0,LEO,USA,USA,Unknown,Unknown,Falcon,1 55953U 23037AR  23127.88658469  .00000634  00000+0  70407-5 0  9996,2 55953  70.0008  37.3432 0004102 267.2602  92.8124 15.69925813  8551,15.69925813,0.0004102,LEO
55954,STARLINK-5892,2023,91.72,-1.0,+,70.0,Active,0,LEO,USA,USA,Unknown,Unknown,Falcon,1 55954U 23037AS  23127.88531785  .00002586  00000+0  23260-4 0  9990,2 55954  70.0009  37.3350 0004205 274.5375  85.5340 15.69928953  8551,15.69928953,0.0004205,LEO
55955,STARLINK-5878,2023,91.72,-1.0,+,70.0,Active,0,LEO,USA,USA,Unknown,Unknown,Falcon,1 55955U 23037AT  23128.14071004  .00003256  00000+0  28833-4 0  9990,2 55955  70.0003  36.6218 0003749 267.7816  92.2951 15.69928405  8596,15.69928405,0.0003749,LEO
55956,STARLINK-5883,2023,91.72,-1.0,+,70.0,Active,0,LEO,USA,USA,Unknown,Unknown,Falcon,1 55956U 23037AU  23128.13996840  .00000616  00000+0  68892-5 0  9991,2 55956  69.9992  36.6181 0003400 259.4145 100.6668 15.69937397  8596,15.69937397,0.00034,LEO
55957,STARLINK-5884,2023,91.72,-1.0,+,70.0,Active,0,LEO,USA,USA,Unknown,Unknown,Falcon,1 55957U 23037AV  23128.14081601  .00000329  00000+0  45073-5 0  9990,2 55957  70.0017  36.6227 0003127 264.9846  95.0993 15.69921795  8597,15.69921795,0.0003127,LEO
55958,STARLINK-5928,2023,91.72,-1.0,+,70.0,Active,0,LEO,USA,USA,Unknown,Unknown,Falcon,1 55958U 23037AW  23128.14060586  .00012226  00000+0  10324-3 0  9998,2 55958  70.0013  36.6215 0003819 268.3168  91.7590 15.69935458  8591,15.69935458,0.0003819,LEO
55959,STARLINK-5929,2023,91.72,-1.0,+,70.0,Active,0,LEO,USA,USA,Unknown,Unknown,Falcon,1 55959U 23037AX  23127.88563908  .00002571  00000+0  23143-4 0  9991,2 55959  70.0020  37.3386 0005175 290.3686  69.6954 15.69921749  8556,15.69921749,0.0005175,LEO
55960,STARLINK-5938,2023,91.72,-1.0,+,70.0,Active,0,LEO,USA,USA,Unknown,Unknown,Falcon,1 55960U 23037AY  23128.13975963  .00002461  00000+0  22227-4 0  9990,2 55960  69.9990  36.6173 0003437 261.8383  98.2423 15.69931987  8591,15.69931987,0.0003437,LEO
55961,STARLINK-5933,2023,91.72,-1.0,+,70.0,Active,0,LEO,USA,USA,Unknown,Unknown,Falcon,1 55961U 23037AZ  23128.14007467  .00003169  00000+0  28097-4 0  9994,2 55961  70.0002  36.6178 0003863 267.7411  92.3343 15.69937343  8592,15.69937343,0.0003863,LEO
55962,STARLINK-5906,2023,91.72,-1.0,+,70.0,Active,0,LEO,USA,USA,Unknown,Unknown,Falcon,1 55962U 23037BA  23128.14029056  .00001855  00000+0  17184-4 0  9998,2 55962  70.0014  36.6193 0003209 271.0707  89.0121 15.69932354  8597,15.69932354,0.0003209,LEO
55963,STARLINK-5924,2023,91.72,-1.0,+,70.0,Active,0,LEO,USA,USA,Unknown,Unknown,Falcon,1 55963U 23037BB  23127.88553038  .00000188  00000+0  33391-5 0  9998,2 55963  69.9978  37.3361 0004016 272.1757  87.8979 15.69926213  8553,15.69926213,0.0004016,LEO
55964,STARLINK-5895,2023,91.72,-1.0,+,70.0,Active,0,LEO,USA,USA,Unknown,Unknown,Falcon,1 55964U 23037BC  23127.88615971  .00002295  00000+0  20847-4 0  9996,2 55964  70.0010  37.3390 0004273 273.5393  86.5313 15.69926668  8554,15.69926668,0.0004273,LEO
55965,STARLINK-5894,2023,91.72,-1.0,+,70.0,Active,0,LEO,USA,USA,Unknown,Unknown,Falcon,1 55965U 23037BD  23128.13986686  .00001186  00000+0  11629-4 0  9996,2 55965  70.0017  36.6188 0003249 262.9397  97.1430 15.69919830  8592,15.6991983,0.0003249,LEO
55970,SES-18,2023,1432.43,-1.0,+,0.05,Active,0,GSO,USA,SES,Unknown,Unknown,Falcon,1 55970U 23038A   23127.69007740  .00000054  00000+0  00000+0 0  9997,2 55970   0.0447 267.6551 0001236  42.5014  31.7945  1.00528482   710,1.00528482,0.0001236,GEO
55971,SES-19,2023,1435.99,-1.0,+,0.01,Active,0,GSO,USA,SES,Unknown,Unknown,Falcon,1 55971U 23038B   23125.37030859  .00000132  00000+0  00000+0 0  9995,2 55971   0.0098 279.7748 0000305 190.6733 103.2830  1.00279332   663,1.00279332,3.05e-05,GEO
55973,OBJECT A,2023,94.83,-1.0,+,97.42,Active,0,LEO,PRC,China,Unknown,Unknown,Unknown,1 55973U 23039A   23128.09225778  .00007159  00000+0  34803-3 0  9994,2 55973  97.4236 277.9413 0016301  91.5339 358.3898 15.18604754  7097,15.18604754,0.0016301,LEO
55974,OBJECT B,2023,94.79,-1.0,+,97.42,Active,0,LEO,PRC,China,Unknown,Unknown,Unknown,1 55974U 23039B   23128.08963419  .00007403  00000+0  35477-3 0  9995,2 55974  97.4155 277.9133 0014784  94.9312  36.4512 15.19113056  7085,15.19113056,0.0014784,LEO
55975,OBJECT C,2023,94.76,-1.0,+,97.42,Active,0,LEO,PRC,China,Unknown,Unknown,Unknown,1 55975U 23039C   23128.07686912  .00007575  00000+0  35792-3 0  9995,2 55975  97.4204 277.9510 0012307  97.4738  13.9942 15.19626040  7077,15.1962604,0.0012307,LEO
55976,OBJECT D,2023,94.73,-1.0,+,97.42,Active,0,LEO,PRC,China,Unknown,Unknown,Unknown,1 55976U 23039D   23128.06918970  .00007779  00000+0  36286-3 0  9992,2 55976  97.4215 277.9779 0012605 105.8269  28.2124 15.20060586  7071,15.20060586,0.0012605,LEO
55978,COSMOS 2567,2023,94.62,-1.0,+,97.63,Active,0,LEO,Russia,Russia/USSR,Unknown,Unknown,Soyuz,1 55978U 23040A   23128.09964532  .00004491  00000+0  20062-3 0  9997,2 55978  97.6316  23.0671 0010771 143.3224 352.8748 15.21830966  6983,15.21830966,0.0010771,LEO
55982,GLOBAL-19,2023,93.51,-1.0,+,42.02,Active,0,LEO,New Zealand,USA,Unknown,Unknown,Unknown,1 55982U 23041B   23127.92837291  .00026235  00000+0  64487-3 0  9994,2 55982  42.0169 354.8144 0008082 245.7296 114.2700 15.40065680  6865,15.4006568,0.0008082,LEO
55983,GLOBAL-5,2023,93.47,-1.0,UNK,42.02,Inactive,0,LEO,New Zealand,USA,Unknown,Unknown,Unknown,1 55983U 23041C   23127.91234791  .00026939  00000+0  64898-3 0  9997,2 55983  42.0173 354.6890 0009783 236.7028 123.2876 15.40649485  6864,15.40649485,0.0009783,LEO
55986,STARLINK-5905,2023,93.83,-1.0,+,43.0,Active,0,LEO,USA,USA,Unknown,Unknown,Falcon,1 55986U 23042A   23127.91667824 -.00871995  00000+0 -29961-1 0  9990,2 55986  43.0003 292.5675 0001325 278.0107 257.1779 15.32079582  7262,15.32079582,0.0001325,LEO
55987,STARLINK-5915,2023,93.75,-1.0,+,43.0,Active,0,LEO,USA,USA,Unknown,Unknown,Falcon,1 55987U 23042B   23128.25001157 -.00883544  00000+0 -29740-1 0  9998,2 55987  43.0006 290.5554 0001361 268.2085 355.0341 15.32764494  7318,15.32764494,0.0001361,LEO
55988,STARLINK-5916,2023,93.8,-1.0,+,43.0,Active,0,LEO,USA,USA,Unknown,Unknown,Falcon,1 55988U 23042C   23127.91667824 -.00872666  00000+0 -29615-1 0  9994,2 55988  43.0005 292.5353 0001315 276.1408 272.8712 15.32473422  7263,15.32473422,0.0001315,LEO
55989,STARLINK-5947,2023,93.79,-1.0,+,43.0,Active,0,LEO,USA,USA,Unknown,Unknown,Falcon,1 55989U 23042D   23127.91667824 -.00873206  00000+0 -29358-1 0  9990,2 55989  43.0003 292.5090 0001317 274.5144 285.1325 15.32769635  7262,15.32769635,0.0001317,LEO
55990,STARLINK-5946,2023,93.82,-1.0,+,43.0,Active,0,LEO,USA,USA,Unknown,Unknown,Falcon,1 55990U 23042E   23127.91667824 -.00872220  00000+0 -29798-1 0  9995,2 55990  43.0007 292.5532 0001344 282.8525 258.8042 15.32260999  7266,15.32260999,0.0001344,LEO
55991,STARLINK-5948,2023,93.69,-1.0,+,43.0,Active,0,LEO,USA,USA,Unknown,Unknown,Falcon,1 55991U 23042F   23128.25001157 -.00883396  00000+0 -29258-1 0  9992,2 55991  43.0005 290.5138 0001392 266.0324  13.8701 15.33272875  7313,15.33272875,0.0001392,LEO
55992,STARLINK-5962,2023,93.76,-1.0,+,43.0,Active,0,LEO,USA,USA,Unknown,Unknown,Falcon,1 55992U 23042G   23127.91667824 -.00873896  00000+0 -29014-1 0  9998,2 55992  43.0007 292.4776 0001341 279.3931 293.6935 15.33167635  7268,15.33167635,0.0001341,LEO
55993,STARLINK-5969,2023,93.79,-1.0,+,43.0,Active,0,LEO,USA,USA,Unknown,Unknown,Falcon,1 55993U 23042H   23127.91667824 -.00873038  00000+0 -29416-1 0  9993,2 55993  43.0006 292.5161 0001315 273.8982 282.8330 15.32700821  7261,15.32700821,0.0001315,LEO
55994,STARLINK-5956,2023,93.73,-1.0,+,43.0,Active,0,LEO,USA,USA,Unknown,Unknown,Falcon,1 55994U 23042J   23128.25001157 -.00883311  00000+0 -29556-1 0  9993,2 55994  43.0010 290.5412 0001377 263.8636   5.7751 15.32950931  7311,15.32950931,0.0001377,LEO
55995,STARLINK-5957,2023,93.77,-1.0,+,43.0,Active,0,LEO,USA,USA,Unknown,Unknown,Falcon,1 55995U 23042K   23127.91667824 -.00873599  00000+0 -29137-1 0  9997,2 55995  43.0002 292.4876 0001345 281.6877 286.3102 15.33022904  7260,15.33022904,0.0001345,LEO
